{"type": "FeatureCollection", "features": [ {"type": "Feature", "properties": {"norad_id": 38755, "name": "SPOT 6", "group": "resource", "lat": 46.70971740887713, "lon": 40.68613059224317, "alt_km": 693.0759401102014, "timestamp": "2025-12-10T14:53:36.779534+00:00", "meta": {"OBJECT_NAME": "SPOT 6", "OBJECT_ID": "2012-047A", "EPOCH": "2025-12-10T08:05:30.216192", "MEAN_MOTION": 14.58599554, "ECCENTRICITY": 0.00010967, "INCLINATION": 98.157, "RA_OF_ASC_NODE": 49.1657, "ARG_OF_PERICENTER": 96.6638, "MEAN_ANOMALY": 263.4686, "EPHEMERIS_TYPE": 0, "CLASSIFICATION_TYPE": "U", "NORAD_CAT_ID": 38755, "ELEMENT_SET_NO": 999, "REV_AT_EPOCH": 70552, "BSTAR": 0.00014374828, "MEAN_MOTION_DOT": 6.24e-06, "MEAN_MOTION_DDOT": 0}, "tle": {"line1": "1 38755U 12047A   25344.33715528  .00000624  00000+0  14375-3 0  9998", "line2": "2 38755  98.1570  49.1657 0001096  96.6638 263.4686 14.58599554705525"}}, "geometry": {"type": "Point", "coordinates": [40.68613059224317, 46.70971740887713]}}, {"type": "Feature", "properties": {"norad_id": 39019, "name": "PLEIADES 1B", "group": "resource", "lat": -52.93977058632565, "lon": 68.28470013246987, "alt_km": 705.4520449044076, "timestamp": "2025-12-10T14:53:36.779543+00:00", "meta": {"OBJECT_NAME": "PLEIADES 1B", "OBJECT_ID": "2012-068A", "EPOCH": "2025-12-10T06:54:26.108352", "MEAN_MOTION": 14.58548928, "ECCENTRICITY": 0.00012253, "INCLINATION": 98.1793, "RA_OF_ASC_NODE": 56.9782, "ARG_OF_PERICENTER": 82.3344, "MEAN_ANOMALY": 277.7994, "EPHEMERIS_TYPE": 0, "CLASSIFICATION_TYPE": "U", "NORAD_CAT_ID": 39019, "ELEMENT_SET_NO": 999, "REV_AT_EPOCH": 69331, "BSTAR": 0.00013903361, "MEAN_MOTION_DOT": 6.01e-06, "MEAN_MOTION_DDOT": 0}, "tle": {"line1": "1 39019U 12068A   25344.28780218  .00000601  00000+0  13903-3 0  9998", "line2": "2 39019  98.1793  56.9782 0001225  82.3344 277.7994 14.58548928693313"}}, "geometry": {"type": "Point", "coordinates": [68.28470013246987, -52.93977058632565]}}, {"type": "Feature", "properties": {"norad_id": 39030, "name": "GOKTURK 2", "group": "resource", "lat": 33.82526271768224, "lon": -178.8161336244805, "alt_km": 641.857016062123, "timestamp": "2025-12-10T14:53:36.779552+00:00", "meta": {"OBJECT_NAME": "GOKTURK 2", "OBJECT_ID": "2012-073A", "EPOCH": "2025-12-10T06:36:00.616896", "MEAN_MOTION": 14.75285925, "ECCENTRICITY": 9.499e-05, "INCLINATION": 97.6891, "RA_OF_ASC_NODE": 186.0495, "ARG_OF_PERICENTER": 101.3912, "MEAN_ANOMALY": 258.7405, "EPHEMERIS_TYPE": 0, "CLASSIFICATION_TYPE": "U", "NORAD_CAT_ID": 39030, "ELEMENT_SET_NO": 999, "REV_AT_EPOCH": 69665, "BSTAR": 0.00016300789, "MEAN_MOTION_DOT": 1.057e-05, "MEAN_MOTION_DDOT": 0}, "tle": {"line1": "1 39030U 12073A   25344.27500714  .00001057  00000+0  16301-3 0  9998", "line2": "2 39030  97.6891 186.0495 0000949 101.3912 258.7405 14.75285925696650"}}, "geometry": {"type": "Point", "coordinates": [-178.8161336244805, 33.82526271768224]}}, {"type": "Feature", "properties": {"norad_id": 39084, "name": "LANDSAT 8", "group": "resource", "lat": 51.81331649620241, "lon": -116.70111340648948, "alt_km": 697.1069176112796, "timestamp": "2025-12-10T14:53:36.779561+00:00", "meta": {"OBJECT_NAME": "LANDSAT 8", "OBJECT_ID": "2013-008A", "EPOCH": "2025-12-10T07:43:07.929984", "MEAN_MOTION": 14.57110363, "ECCENTRICITY": 0.00011084, "INCLINATION": 98.2075, "RA_OF_ASC_NODE": 52.4307, "ARG_OF_PERICENTER": 87.4791, "MEAN_ANOMALY": 272.6534, "EPHEMERIS_TYPE": 0, "CLASSIFICATION_TYPE": "U", "NORAD_CAT_ID": 39084, "ELEMENT_SET_NO": 999, "REV_AT_EPOCH": 67039, "BSTAR": 0.00016236182, "MEAN_MOTION_DOT": 6.86e-06, "MEAN_MOTION_DDOT": 0}, "tle": {"line1": "1 39084U 13008A   25344.32161956  .00000686  00000+0  16236-3 0  9997", "line2": "2 39084  98.2075  52.4307 0001108  87.4791 272.6534 14.57110363670399"}}, "geometry": {"type": "Point", "coordinates": [-116.70111340648948, 51.81331649620241]}}, {"type": "Feature", "properties": {"norad_id": 39086, "name": "SARAL", "group": "resource", "lat": -60.37112864638113, "lon": -176.0828935719498, "alt_km": 791.6642484669674, "timestamp": "2025-12-10T14:53:36.779570+00:00", "meta": {"OBJECT_NAME": "SARAL", "OBJECT_ID": "2013-009A", "EPOCH": "2025-12-10T06:48:00.402336", "MEAN_MOTION": 14.32755725, "ECCENTRICITY": 0.00028207, "INCLINATION": 98.5503, "RA_OF_ASC_NODE": 168.2459, "ARG_OF_PERICENTER": 113.2548, "MEAN_ANOMALY": 246.8933, "EPHEMERIS_TYPE": 0, "CLASSIFICATION_TYPE": "U", "NORAD_CAT_ID": 39086, "ELEMENT_SET_NO": 999, "REV_AT_EPOCH": 66855, "BSTAR": 9.586012e-05, "MEAN_MOTION_DOT": 2.17e-06, "MEAN_MOTION_DDOT": 0}, "tle": {"line1": "1 39086U 13009A   25344.28333799  .00000217  00000+0  95860-4 0  9992", "line2": "2 39086  98.5503 168.2459 0002820 113.2548 246.8933 14.32755725668555"}}, "geometry": {"type": "Point", "coordinates": [-176.0828935719498, -60.37112864638113]}}, {"type": "Feature", "properties": {"norad_id": 39150, "name": "GAOFEN-1", "group": "resource", "lat": 75.08212259754494, "lon": -93.12366772953715, "alt_km": 624.4786772538228, "timestamp": "2025-12-10T14:53:36.779579+00:00", "meta": {"OBJECT_NAME": "GAOFEN-1", "OBJECT_ID": "2013-018A", "EPOCH": "2025-12-10T07:55:28.015104", "MEAN_MOTION": 14.76527291, "ECCENTRICITY": 0.00180436, "INCLINATION": 97.9326, "RA_OF_ASC_NODE": 55.032, "ARG_OF_PERICENTER": 150.3515, "MEAN_ANOMALY": 209.8722, "EPHEMERIS_TYPE": 0, "CLASSIFICATION_TYPE": "U", "NORAD_CAT_ID": 39150, "ELEMENT_SET_NO": 999, "REV_AT_EPOCH": 68037, "BSTAR": 0.00017312681, "MEAN_MOTION_DOT": 1.159e-05, "MEAN_MOTION_DDOT": 0}, "tle": {"line1": "1 39150U 13018A   25344.33018536  .00001159  00000+0  17313-3 0  9991", "line2": "2 39150  97.9326  55.0320 0018043 150.3515 209.8722 14.76527291680375"}}, "geometry": {"type": "Point", "coordinates": [-93.12366772953715, 75.08212259754494]}}, {"type": "Feature", "properties": {"norad_id": 39160, "name": "VNREDSAT 1", "group": "resource", "lat": -71.99346090143644, "lon": -165.44845374690874, "alt_km": 685.5626334362751, "timestamp": "2025-12-10T14:53:36.779588+00:00", "meta": {"OBJECT_NAME": "VNREDSAT 1", "OBJECT_ID": "2013-021B", "EPOCH": "2025-12-10T07:10:53.325984", "MEAN_MOTION": 14.64916523, "ECCENTRICITY": 0.0001309, "INCLINATION": 97.9372, "RA_OF_ASC_NODE": 39.6595, "ARG_OF_PERICENTER": 78.8244, "MEAN_ANOMALY": 281.3107, "EPHEMERIS_TYPE": 0, "CLASSIFICATION_TYPE": "U", "NORAD_CAT_ID": 39160, "ELEMENT_SET_NO": 999, "REV_AT_EPOCH": 67263, "BSTAR": 0.00017127239, "MEAN_MOTION_DOT": 8.7e-06, "MEAN_MOTION_DDOT": 0}, "tle": {"line1": "1 39160U 13021B   25344.29922831  .00000870  00000+0  17127-3 0  9995", "line2": "2 39160  97.9372  39.6595 0001309  78.8244 281.3107 14.64916523672638"}}, "geometry": {"type": "Point", "coordinates": [-165.44845374690874, -71.99346090143644]}}, {"type": "Feature", "properties": {"norad_id": 39227, "name": "ARIRANG-5 (KOMPSAT-5)", "group": "resource", "lat": 30.258649666874152, "lon": 164.47875565949073, "alt_km": 549.2295655359103, "timestamp": "2025-12-10T14:53:36.779597+00:00", "meta": {"OBJECT_NAME": "ARIRANG-5 (KOMPSAT-5)", "OBJECT_ID": "2013-042A", "EPOCH": "2025-12-10T06:46:37.494624", "MEAN_MOTION": 15.04484461, "ECCENTRICITY": 0.00038918, "INCLINATION": 97.6143, "RA_OF_ASC_NODE": 168.6216, "ARG_OF_PERICENTER": 61.4435, "MEAN_ANOMALY": 298.7183, "EPHEMERIS_TYPE": 0, "CLASSIFICATION_TYPE": "U", "NORAD_CAT_ID": 39227, "ELEMENT_SET_NO": 999, "REV_AT_EPOCH": 67545, "BSTAR": 8.008148e-05, "MEAN_MOTION_DOT": 1.06e-05, "MEAN_MOTION_DDOT": 0}, "tle": {"line1": "1 39227U 13042A   25344.28237841  .00001060  00000+0  80081-4 0  9993", "line2": "2 39227  97.6143 168.6216 0003891  61.4435 298.7183 15.04484461675451"}}, "geometry": {"type": "Point", "coordinates": [164.47875565949073, 30.258649666874152]}}, {"type": "Feature", "properties": {"norad_id": 39418, "name": "SKYSAT-A", "group": "resource", "lat": -10.059396369486663, "lon": 36.21626353225205, "alt_km": 539.4350512897736, "timestamp": "2025-12-10T14:53:36.779606+00:00", "meta": {"OBJECT_NAME": "SKYSAT-A", "OBJECT_ID": "2013-066C", "EPOCH": "2025-12-10T02:13:41.984256", "MEAN_MOTION": 15.1157189, "ECCENTRICITY": 0.00206786, "INCLINATION": 97.4109, "RA_OF_ASC_NODE": 34.3815, "ARG_OF_PERICENTER": 246.4285, "MEAN_ANOMALY": 113.4774, "EPHEMERIS_TYPE": 0, "CLASSIFICATION_TYPE": "U", "NORAD_CAT_ID": 39418, "ELEMENT_SET_NO": 999, "REV_AT_EPOCH": 65990, "BSTAR": 0.00034689234, "MEAN_MOTION_DOT": 5.852e-05, "MEAN_MOTION_DDOT": 0}, "tle": {"line1": "1 39418U 13066C   25344.09284704  .00005852  00000+0  34689-3 0  9995", "line2": "2 39418  97.4109  34.3815 0020678 246.4285 113.4774 15.11571890659909"}}, "geometry": {"type": "Point", "coordinates": [36.21626353225205, -10.059396369486663]}}, {"type": "Feature", "properties": {"norad_id": 39419, "name": "DUBAISAT-2", "group": "resource", "lat": 23.14467958208023, "lon": 158.29800981436162, "alt_km": 548.4662448243289, "timestamp": "2025-12-10T14:53:36.779615+00:00", "meta": {"OBJECT_NAME": "DUBAISAT-2", "OBJECT_ID": "2013-066D", "EPOCH": "2025-12-10T06:14:25.844640", "MEAN_MOTION": 15.08317434, "ECCENTRICITY": 0.00109364, "INCLINATION": 97.4453, "RA_OF_ASC_NODE": 334.7441, "ARG_OF_PERICENTER": 329.9722, "MEAN_ANOMALY": 30.0879, "EPHEMERIS_TYPE": 0, "CLASSIFICATION_TYPE": "U", "NORAD_CAT_ID": 39419, "ELEMENT_SET_NO": 999, "REV_AT_EPOCH": 65789, "BSTAR": 0.00045842029, "MEAN_MOTION_DOT": 7.064e-05, "MEAN_MOTION_DDOT": 0}, "tle": {"line1": "1 39419U 13066D   25344.26002135  .00007064  00000+0  45842-3 0  9991", "line2": "2 39419  97.4453 334.7441 0010936 329.9722  30.0879 15.08317434657897"}}, "geometry": {"type": "Point", "coordinates": [158.29800981436162, 23.14467958208023]}}]}